IRIDIUM 144             
1 43249U 18030A   23237.37754048  .00000340  00000+0  11417-3 0  9992
2 43249  86.4019 359.5476 0002338  87.6311 272.5152 14.34216142282984
IRIDIUM 149             
1 43250U 18030B   23237.38388494  .00000334  00000+0  11204-3 0  9990
2 43250  86.4017 359.5227 0002216  86.8887 273.2562 14.34216545282982
IRIDIUM 157             
1 43251U 18030C   23236.91453126  .00000360  00000+0  12146-3 0  9999
2 43251  86.4016 359.7489 0002132  98.3227 261.8211 14.34215951282891
IRIDIUM 140             
1 43252U 18030D   23237.35218896  .00000347  00000+0  11689-3 0  9998
2 43252  86.4019 359.5810 0002421  90.2721 269.8752 14.34219795283015
IRIDIUM 145             
1 43253U 18030E   23236.92087455  .00000679  00000+0  23554-3 0  9998
2 43253  86.4019 359.7361 0002228  78.3527 281.7919 14.34216739282882
IRIDIUM 146             
1 43254U 18030F   23236.41346649  .00000263  00000+0  86833-4 0  9995
2 43254  86.4017 359.9634 0002101  87.7934 272.3502 14.34215880282826
IRIDIUM 148             
1 43255U 18030G   23237.07943349  .00000513  00000+0  17606-3 0  9998
2 43255  86.4013 359.7123 0002016  93.1603 266.9823 14.34221651282966
IRIDIUM 142             
1 43256U 18030H   23236.41981312  .00000374  00000+0  12651-3 0  9998
2 43256  86.4015 359.9150 0002089  90.8974 269.2461 14.34217116282826
